CCSDS_OMM_VERS = 2.0
CREATION_DATE  = 
ORIGINATOR     = 

OBJECT_NAME    = STARLINK-36616
OBJECT_ID      = 2026-022AA
CENTER_NAME    = EARTH
REF_FRAME      = TEME
TIME_SYSTEM    = UTC
MEAN_ELEMENT_THEORY = SGP/SGP4

EPOCH          = 2026-02-23T02:03:43.258176
MEAN_MOTION    = 15.75224481
ECCENTRICITY   = .0001671
INCLINATION    = 97.2856
RA_OF_ASC_NODE = 87.3966
ARG_OF_PERICENTER = 75.9129
MEAN_ANOMALY   = 284.2322

EPHEMERIS_TYPE = 0
CLASSIFICATION_TYPE = U
NORAD_CAT_ID   = 67672
ELEMENT_SET_NO = 999
REV_AT_EPOCH   = 325
BSTAR          = .75349E-3
MEAN_MOTION_DOT = .11394E-2
MEAN_MOTION_DDOT = 0

CCSDS_OMM_VERS = 2.0
CREATION_DATE  = 
ORIGINATOR     = 

OBJECT_NAME    = COSMOS 2600
OBJECT_ID      = 2026-023A
CENTER_NAME    = EARTH
REF_FRAME      = TEME
TIME_SYSTEM    = UTC
MEAN_ELEMENT_THEORY = SGP/SGP4

EPOCH          = 2026-02-23T04:13:22.896480
MEAN_MOTION    = 15.83364719
ECCENTRICITY   = .0001662
INCLINATION    = 96.6455
RA_OF_ASC_NODE = 130.2729
ARG_OF_PERICENTER = 60.7892
MEAN_ANOMALY   = 299.3545

EPHEMERIS_TYPE = 0
CLASSIFICATION_TYPE = U
NORAD_CAT_ID   = 67674
ELEMENT_SET_NO = 999
REV_AT_EPOCH   = 275
BSTAR          = .41158E-3
MEAN_MOTION_DOT = .8946E-3
MEAN_MOTION_DDOT = 0

CCSDS_OMM_VERS = 2.0
CREATION_DATE  = 
ORIGINATOR     = 

OBJECT_NAME    = 2026-023B
OBJECT_ID      = 2026-023B
CENTER_NAME    = EARTH
REF_FRAME      = TEME
TIME_SYSTEM    = UTC
MEAN_ELEMENT_THEORY = SGP/SGP4

EPOCH          = 2026-02-23T04:45:04.563072
MEAN_MOTION    = 15.22610496
ECCENTRICITY   = .0018419
INCLINATION    = 96.6379
RA_OF_ASC_NODE = 128.8254
ARG_OF_PERICENTER = 181.5473
MEAN_ANOMALY   = 178.5712

EPHEMERIS_TYPE = 0
CLASSIFICATION_TYPE = U
NORAD_CAT_ID   = 67675
ELEMENT_SET_NO = 999
REV_AT_EPOCH   = 265
BSTAR          = .69182E-3
MEAN_MOTION_DOT = .16117E-3
MEAN_MOTION_DDOT = 0

CCSDS_OMM_VERS = 2.0
CREATION_DATE  = 
ORIGINATOR     = 

OBJECT_NAME    = 2026-023C
OBJECT_ID      = 2026-023C
CENTER_NAME    = EARTH
REF_FRAME      = TEME
TIME_SYSTEM    = UTC
MEAN_ELEMENT_THEORY = SGP/SGP4

EPOCH          = 2026-02-23T04:44:00.633984
MEAN_MOTION    = 15.22688415
ECCENTRICITY   = .0019621
INCLINATION    = 96.6416
RA_OF_ASC_NODE = 128.8428
ARG_OF_PERICENTER = 171.6523
MEAN_ANOMALY   = 188.5046

EPHEMERIS_TYPE = 0
CLASSIFICATION_TYPE = U
NORAD_CAT_ID   = 67676
ELEMENT_SET_NO = 999
REV_AT_EPOCH   = 281
BSTAR          = .6245E-3
MEAN_MOTION_DOT = .14582E-3
MEAN_MOTION_DDOT = 0

CCSDS_OMM_VERS = 2.0
CREATION_DATE  = 
ORIGINATOR     = 

OBJECT_NAME    = 2026-023D
OBJECT_ID      = 2026-023D
CENTER_NAME    = EARTH
REF_FRAME      = TEME
TIME_SYSTEM    = UTC
MEAN_ELEMENT_THEORY = SGP/SGP4

EPOCH          = 2026-02-23T04:46:04.826208
MEAN_MOTION    = 15.22533656
ECCENTRICITY   = .0019747
INCLINATION    = 96.6446
RA_OF_ASC_NODE = 128.8286
ARG_OF_PERICENTER = 176.7167
MEAN_ANOMALY   = 183.4205

EPHEMERIS_TYPE = 0
CLASSIFICATION_TYPE = U
NORAD_CAT_ID   = 67677
ELEMENT_SET_NO = 999
REV_AT_EPOCH   = 264
BSTAR          = .56245E-3
MEAN_MOTION_DOT = .13066E-3
MEAN_MOTION_DDOT = 0

CCSDS_OMM_VERS = 2.0
CREATION_DATE  = 
ORIGINATOR     = 

OBJECT_NAME    = 2026-023E
OBJECT_ID      = 2026-023E
CENTER_NAME    = EARTH
REF_FRAME      = TEME
TIME_SYSTEM    = UTC
MEAN_ELEMENT_THEORY = SGP/SGP4

EPOCH          = 2026-02-23T04:44:27.049920
MEAN_MOTION    = 15.22666433
ECCENTRICITY   = .0019584
INCLINATION    = 96.6339
RA_OF_ASC_NODE = 128.8214
ARG_OF_PERICENTER = 176.1132
MEAN_ANOMALY   = 184.0262

EPHEMERIS_TYPE = 0
CLASSIFICATION_TYPE = U
NORAD_CAT_ID   = 67678
ELEMENT_SET_NO = 999
REV_AT_EPOCH   = 264
BSTAR          = .65628E-3
MEAN_MOTION_DOT = .15319E-3
MEAN_MOTION_DDOT = 0

CCSDS_OMM_VERS = 2.0
CREATION_DATE  = 
ORIGINATOR     = 

OBJECT_NAME    = 2026-023F
OBJECT_ID      = 2026-023F
CENTER_NAME    = EARTH
REF_FRAME      = TEME
TIME_SYSTEM    = UTC
MEAN_ELEMENT_THEORY = SGP/SGP4

EPOCH          = 2026-02-23T04:42:10.145664
MEAN_MOTION    = 15.22808006
ECCENTRICITY   = .0021501
INCLINATION    = 96.6347
RA_OF_ASC_NODE = 131.3198
ARG_OF_PERICENTER = 171.0216
MEAN_ANOMALY   = 189.1412

EPHEMERIS_TYPE = 0
CLASSIFICATION_TYPE = U
NORAD_CAT_ID   = 67679
ELEMENT_SET_NO = 999
REV_AT_EPOCH   = 263
BSTAR          = .70646E-3
MEAN_MOTION_DOT = .16584E-3
MEAN_MOTION_DDOT = 0

CCSDS_OMM_VERS = 2.0
CREATION_DATE  = 
ORIGINATOR     = 

OBJECT_NAME    = 2026-023G
OBJECT_ID      = 2026-023G
CENTER_NAME    = EARTH
REF_FRAME      = TEME
TIME_SYSTEM    = UTC
MEAN_ELEMENT_THEORY = SGP/SGP4

EPOCH          = 2026-02-23T04:42:47.220768
MEAN_MOTION    = 15.22765204
ECCENTRICITY   = .0023112
INCLINATION    = 96.6273
RA_OF_ASC_NODE = 131.3110
ARG_OF_PERICENTER = 167.5864
MEAN_ANOMALY   = 192.5949

EPHEMERIS_TYPE = 0
CLASSIFICATION_TYPE = U
NORAD_CAT_ID   = 67680
ELEMENT_SET_NO = 999
REV_AT_EPOCH   = 263
BSTAR          = .64978E-3
MEAN_MOTION_DOT = .15242E-3
MEAN_MOTION_DDOT = 0

CCSDS_OMM_VERS = 2.0
CREATION_DATE  = 
ORIGINATOR     = 

OBJECT_NAME    = 2026-023H
OBJECT_ID      = 2026-023H
CENTER_NAME    = EARTH
REF_FRAME      = TEME
TIME_SYSTEM    = UTC
MEAN_ELEMENT_THEORY = SGP/SGP4

EPOCH          = 2026-02-23T04:42:33.833952
MEAN_MOTION    = 15.22743799
ECCENTRICITY   = .0023124
INCLINATION    = 96.6420
RA_OF_ASC_NODE = 131.3246
ARG_OF_PERICENTER = 166.9528
MEAN_ANOMALY   = 193.2314

EPHEMERIS_TYPE = 0
CLASSIFICATION_TYPE = U
NORAD_CAT_ID   = 67681
ELEMENT_SET_NO = 999
REV_AT_EPOCH   = 263
BSTAR          = .53706E-3
MEAN_MOTION_DOT = .12576E-3
MEAN_MOTION_DDOT = 0

CCSDS_OMM_VERS = 2.0
CREATION_DATE  = 
ORIGINATOR     = 

OBJECT_NAME    = 2026-023J
OBJECT_ID      = 2026-023J
CENTER_NAME    = EARTH
REF_FRAME      = TEME
TIME_SYSTEM    = UTC
MEAN_ELEMENT_THEORY = SGP/SGP4

EPOCH          = 2026-02-23T04:41:43.384992
MEAN_MOTION    = 15.22823165
ECCENTRICITY   = .0023326
INCLINATION    = 96.6374
RA_OF_ASC_NODE = 131.3338
ARG_OF_PERICENTER = 163.8456
MEAN_ANOMALY   = 196.3531

EPHEMERIS_TYPE = 0
CLASSIFICATION_TYPE = U
NORAD_CAT_ID   = 67682
ELEMENT_SET_NO = 999
REV_AT_EPOCH   = 263
BSTAR          = .52665E-3
MEAN_MOTION_DOT = .12361E-3
MEAN_MOTION_DDOT = 0

CCSDS_OMM_VERS = 2.0
CREATION_DATE  = 
ORIGINATOR     = 

OBJECT_NAME    = ISS OBJECT XZ
OBJECT_ID      = 1998-067XZ
CENTER_NAME    = EARTH
REF_FRAME      = TEME
TIME_SYSTEM    = UTC
MEAN_ELEMENT_THEORY = SGP/SGP4

EPOCH          = 2026-02-22T06:22:16.677120
MEAN_MOTION    = 15.50521186
ECCENTRICITY   = .00100054
INCLINATION    = 51.6314
RA_OF_ASC_NODE = 148.4121
ARG_OF_PERICENTER = 134.8539
MEAN_ANOMALY   = 225.3264

EPHEMERIS_TYPE = 0
CLASSIFICATION_TYPE = U
NORAD_CAT_ID   = 67683
ELEMENT_SET_NO = 999
REV_AT_EPOCH   = 239
BSTAR          = .7140621E-3
MEAN_MOTION_DOT = .41343E-3
MEAN_MOTION_DDOT = 0

CCSDS_OMM_VERS = 2.0
CREATION_DATE  = 
ORIGINATOR     = 

OBJECT_NAME    = GXIBA-1
OBJECT_ID      = 1998-067YA
CENTER_NAME    = EARTH
REF_FRAME      = TEME
TIME_SYSTEM    = UTC
MEAN_ELEMENT_THEORY = SGP/SGP4

EPOCH          = 2026-02-22T15:26:02.582880
MEAN_MOTION    = 15.51889665
ECCENTRICITY   = .0011656
INCLINATION    = 51.6313
RA_OF_ASC_NODE = 146.4331
ARG_OF_PERICENTER = 128.7037
MEAN_ANOMALY   = 231.4997

EPHEMERIS_TYPE = 0
CLASSIFICATION_TYPE = U
NORAD_CAT_ID   = 67684
ELEMENT_SET_NO = 999
REV_AT_EPOCH   = 245
BSTAR          = .12925E-2
MEAN_MOTION_DOT = .79428E-3
MEAN_MOTION_DDOT = 0

