STARLINK-36616          
1 67672U 26022AA  26054.08591734  .00113940  00000+0  75349-3 0  9992
2 67672  97.2856  87.3966 0001671  75.9129 284.2322 15.75224481  3256
COSMOS 2600             
1 67674U 26023A   26054.17595945  .00089460  00000+0  41158-3 0  9993
2 67674  96.6455 130.2729 0001662  60.7892 299.3545 15.83364719  2756
2026-023B               
1 67675U 26023B   26054.19796948  .00016117  00000+0  69182-3 0  9998
2 67675  96.6379 128.8254 0018419 181.5473 178.5712 15.22610496  2655
2026-023C               
1 67676U 26023C   26054.19722956  .00014582  00000+0  62450-3 0  9992
2 67676  96.6416 128.8428 0019621 171.6523 188.5046 15.22688415  2818
2026-023D               
1 67677U 26023D   26054.19866697  .00013066  00000+0  56245-3 0  9995
2 67677  96.6446 128.8286 0019747 176.7167 183.4205 15.22533656  2641
2026-023E               
1 67678U 26023E   26054.19753530  .00015319  00000+0  65628-3 0  9995
2 67678  96.6339 128.8214 0019584 176.1132 184.0262 15.22666433  2649
2026-023F               
1 67679U 26023F   26054.19595076  .00016584  00000+0  70646-3 0  9996
2 67679  96.6347 131.3198 0021501 171.0216 189.1412 15.22808006  2634
2026-023G               
1 67680U 26023G   26054.19637987  .00015242  00000+0  64978-3 0  9997
2 67680  96.6273 131.3110 0023112 167.5864 192.5949 15.22765204  2632
2026-023H               
1 67681U 26023H   26054.19622493  .00012576  00000+0  53706-3 0  9998
2 67681  96.6420 131.3246 0023124 166.9528 193.2314 15.22743799  2639
2026-023J               
1 67682U 26023J   26054.19564103  .00012361  00000+0  52665-3 0  9997
2 67682  96.6374 131.3338 0023326 163.8456 196.3531 15.22823165  2631
ISS OBJECT XZ           
1 67683U 98067XZ  26053.26547080  .00041343  00000+0  71406-3 0  9993
2 67683  51.6314 148.4121 0010005 134.8539 225.3264 15.50521186  2394
GXIBA-1                 
1 67684U 98067YA  26053.64308545  .00079428  00000+0  12925-2 0  9992
2 67684  51.6313 146.4331 0011656 128.7037 231.4997 15.51889665  2451
